PLEIADES 1A             
1 38012U 11076F   26197.84458282  .00000068  00000+0  24553-4 0  9991
2 38012  98.1972 272.5472 0001654  78.4696  57.8063 14.58547095776318
PLEIADES 1B             
1 39019U 12068A   26197.85262191 -.00000056  00000+0 -22478-5 0  9998
2 39019  98.1943 272.4940 0001562  78.1517 281.9857 14.58534179725178
